OBJECT_NAME,OBJECT_ID,EPOCH,MEAN_MOTION,ECCENTRICITY,INCLINATION,RA_OF_ASC_NODE,ARG_OF_PERICENTER,MEAN_ANOMALY,EPHEMERIS_TYPE,CLASSIFICATION_TYPE,NORAD_CAT_ID,ELEMENT_SET_NO,REV_AT_EPOCH,BSTAR,MEAN_MOTION_DOT,MEAN_MOTION_DDOT
TIANHUI 5D,2024-126B,2026-05-20T10:53:22.828416,14.87596651,.00020618,97.8216,148.4076,97.9034,262.2416,0,U,60212,999,10177,.29668492E-4,.215E-5,0
TURKSAT 6A,2024-127A,2026-05-22T04:04:35.337216,1.00271401,.0000915,0.0421,162.2417,332.2346,208.4756,0,U,60233,999,675,0,.138E-5,0
GRBBETA,2024-128C,2026-05-21T19:17:06.442656,15.06394080,.00442859,61.9903,308.8177,129.2550,231.2486,0,U,60237,999,10229,.23629054E-3,.3354E-4,0
ISTSAT-1,2024-128D,2026-05-22T06:02:41.200800,15.11234600,.00419149,61.9889,297.8120,126.2885,234.2094,0,U,60238,999,10254,.3445446E-3,.5718E-4,0
OOV-CUBE (TUBSAT-30),2024-128F,2026-05-22T00:54:02.875392,15.02621586,.00479514,61.9943,316.7464,128.0742,232.4689,0,U,60240,999,10218,.14588288E-3,.1784E-4,0
CURIUM ONE,2024-128H,2026-05-21T20:30:23.051808,15.12038990,.00438322,61.9792,299.0106,125.6330,234.8861,0,U,60242,999,10247,.40434784E-3,.6924E-4,0
ROBUSTA-3A (MEDITERRANEE),2024-128J,2026-05-22T03:15:12.306240,15.11213628,.00451104,61.9870,300.3431,122.9540,237.5905,0,U,60243,999,10248,.39813543E-3,.6664E-4,0
CATSAT,2024-125J,2026-05-22T02:41:29.323680,15.55532612,.00210773,97.2112,354.3322,277.1104,82.7754,0,U,60246,999,10333,.57945812E-3,.40036E-3,0
GAOFEN-11 05,2024-130A,2026-05-22T07:17:35.360736,15.23345189,.00040992,97.3996,220.9715,144.4158,215.7353,0,U,60249,999,8152,.18228919E-3,.426E-4,0
STARLINK-32138,2024-131A,2026-05-22T04:37:31.695744,15.31697747,.00014456,53.1617,70.9179,94.2943,265.8224,0,U,60255,999,10327,-.18416006E-4,-.937E-5,0
STARLINK-32212,2024-131B,2026-05-22T02:17:39.797664,15.30197367,.00011977,53.1606,71.7454,90.8478,269.2660,0,U,60256,999,10295,.4197798E-5,-.235E-5,0
STARLINK-32166,2024-131C,2026-05-22T02:26:46.825440,15.30207050,.00012445,53.1609,71.7759,86.8758,273.2385,0,U,60257,999,10295,-.64896591E-4,-.2281E-4,0
STARLINK-32200,2024-131D,2026-05-22T05:22:43.618944,15.30200483,.00012404,53.1605,71.1139,84.9143,275.1999,0,U,60258,999,10297,-.546095E-6,-.375E-5,0
STARLINK-32207,2024-131E,2026-05-22T05:19:41.289888,15.30200398,.00012775,53.1604,71.1124,84.4327,275.6820,0,U,60259,999,10297,.21189429E-4,.268E-5,0
STARLINK-32125,2024-131F,2026-05-22T05:40:48.809856,15.30187367,.0001442,53.1604,70.4856,93.5937,266.5229,0,U,60260,999,10298,-.29002476E-4,-.1218E-4,0
STARLINK-32160,2024-131G,2026-05-22T05:27:16.997184,15.30199788,.00010857,53.1603,71.1283,82.1015,278.0109,0,U,60261,999,10302,.8745008E-5,-.1E-5,0
STARLINK-32163,2024-131H,2026-05-22T04:03:55.313280,15.31702914,.00012474,53.1610,70.7725,95.7060,264.4084,0,U,60262,999,10297,-.7971525E-5,-.613E-5,0
STARLINK-32148,2024-131J,2026-05-22T06:00:02.000160,15.31668905,.00016432,53.1604,70.7512,89.5347,175.1943,0,U,60263,999,581,.18456655E-2,.57294E-3,0
STARLINK-32121,2024-131K,2026-05-22T01:50:18.875904,15.30197283,.00012437,53.1610,71.6174,86.4941,273.6202,0,U,60264,999,10300,-.1341382E-5,-.399E-5,0
STARLINK-32120,2024-131L,2026-05-22T02:18:17.698752,15.29369469,.00014745,53.1623,71.7381,90.3551,269.7619,0,U,60265,999,10300,.13231449E-4,.26E-6,0
STARLINK-32205,2024-131M,2026-05-22T05:16:38.909856,15.30199204,.00012197,53.1603,71.0970,86.4318,273.6822,0,U,60266,999,10297,.24359761E-4,.362E-5,0
STARLINK-32158,2024-131N,2026-05-22T04:29:32.467776,15.30211654,.00012553,53.1610,70.8828,72.2899,287.8239,0,U,60267,999,10287,-.15415842E-3,-.4924E-4,0
STARLINK-32167,2024-131P,2026-05-22T04:08:16.591200,15.30191454,.0001333,53.1607,70.8036,92.7381,267.3772,0,U,60268,999,10296,-.19699488E-4,-.942E-5,0
STARLINK-32144,2024-131Q,2026-05-22T04:17:21.824448,15.31699502,.00012616,53.1613,70.8286,90.5225,269.5921,0,U,60269,999,10302,.792531E-5,-.119E-5,0
STARLINK-32211,2024-131R,2026-05-22T02:22:13.623456,15.30190937,.00009141,53.1602,71.7645,83.7448,276.3657,0,U,60270,999,10295,.5921931E-5,-.184E-5,0
STARLINK-32164,2024-131S,2026-05-22T05:36:24.502752,15.30186247,.00014311,53.1613,71.1733,93.0538,267.0626,0,U,60271,999,10287,-.3825187E-4,-.1491E-4,0
STARLINK-32128,2024-131T,2026-05-22T04:24:59.679648,15.30184377,.00016824,53.1610,70.8626,96.6985,263.4207,0,U,60272,999,10297,-.37651092E-4,-.1474E-4,0
STARLINK-32206,2024-131U,2026-05-22T05:21:11.459520,15.30181558,.00019794,53.1610,71.1134,97.0582,263.0644,0,U,60273,999,10297,.38259733E-3,.10983E-3,0
STARLINK-32155,2024-131V,2026-05-22T06:00:02.000160,15.31682672,.0001275,53.1594,70.9049,85.2067,102.2801,0,U,60274,999,586,.91919331E-3,.28251E-3,0
STARLINK-32152,2024-131W,2026-05-22T04:20:25.409760,15.30192910,.00011047,53.1607,70.8411,84.4824,275.6302,0,U,60275,999,10287,.3286692E-5,-.262E-5,0
