TIANHUI 5D              
1 60212U 24126B   26140.45373644  .00000215  00000+0  29668-4 0  9997
2 60212  97.8216 148.4076 0002061  97.9034 262.2416 14.87596651101778
TURKSAT 6A              
1 60233U 24127A   26142.16985344  .00000138  00000+0  00000+0 0  9995
2 60233   0.0421 162.2417 0000915 332.2346 208.4756  1.00271401  6750
GRBBETA                 
1 60237U 24128C   26141.80354679  .00003354  00000+0  23629-3 0  9990
2 60237  61.9903 308.8177 0044285 129.2550 231.2486 15.06394080102295
ISTSAT-1                
1 60238U 24128D   26142.25186575  .00005718  00000+0  34454-3 0  9993
2 60238  61.9889 297.8120 0041914 126.2885 234.2094 15.11234600102541
OOV-CUBE (TUBSAT-30)    
1 60240U 24128F   26142.03753328  .00001784  00000+0  14588-3 0  9993
2 60240  61.9943 316.7464 0047951 128.0742 232.4689 15.02621586102189
CURIUM ONE              
1 60242U 24128H   26141.85443347  .00006924  00000+0  40435-3 0  9992
2 60242  61.9792 299.0106 0043832 125.6330 234.8861 15.12038990102471
ROBUSTA-3A (MEDITERRAN*)
1 60243U 24128J   26142.13555910  .00006664  00000+0  39814-3 0  9995
2 60243  61.9870 300.3431 0045110 122.9540 237.5905 15.11213628102482
CATSAT                  
1 60246U 24125J   26142.11214495  .00040036  00000+0  57946-3 0  9990
2 60246  97.2112 354.3322 0021077 277.1104  82.7754 15.55532612103331
GAOFEN-11 05            
1 60249U 24130A   26142.30388149  .00004260  00000+0  18229-3 0  9998
2 60249  97.3996 220.9715 0004099 144.4158 215.7353 15.23345189 81524
STARLINK-32138          
1 60255U 24131A   26142.19272796 -.00000937  00000+0 -18416-4 0  9991
2 60255  53.1617  70.9179 0001445  94.2943 265.8224 15.31697747103273
STARLINK-32212          
1 60256U 24131B   26142.09559951 -.00000235  00000+0  41978-5 0  9992
2 60256  53.1606  71.7454 0001197  90.8478 269.2660 15.30197367102954
STARLINK-32166          
1 60257U 24131C   26142.10193085 -.00002281  00000+0 -64897-4 0  9995
2 60257  53.1609  71.7759 0001244  86.8758 273.2385 15.30207050102955
STARLINK-32200          
1 60258U 24131D   26142.22411596 -.00000375  00000+0 -54610-6 0  9995
2 60258  53.1605  71.1139 0001240  84.9143 275.1999 15.30200483102978
STARLINK-32207          
1 60259U 24131E   26142.22200567  .00000268  00000+0  21189-4 0  9992
2 60259  53.1604  71.1124 0001277  84.4327 275.6820 15.30200398102974
STARLINK-32125          
1 60260U 24131F   26142.23667604 -.00001218  00000+0 -29002-4 0  9994
2 60260  53.1604  70.4856 0001442  93.5937 266.5229 15.30187367102985
STARLINK-32160          
1 60261U 24131G   26142.22728006 -.00000100  00000+0  87450-5 0  9998
2 60261  53.1603  71.1283 0001085  82.1015 278.0109 15.30199788103022
STARLINK-32163          
1 60262U 24131H   26142.16939020 -.00000613  00000+0 -79715-5 0  9997
2 60262  53.1610  70.7725 0001247  95.7060 264.4084 15.31702914102973
STARLINK-32148          
1 60263U 24131J   26142.25002315  .00057294  00000+0  18457-2 0  9994
2 60263  53.1604  70.7512 0001643  89.5347 175.1943 15.31668905  5818
STARLINK-32121          
1 60264U 24131K   26142.07660736 -.00000399  00000+0 -13414-5 0  9999
2 60264  53.1610  71.6174 0001243  86.4941 273.6202 15.30197283103009
STARLINK-32120          
1 60265U 24131L   26142.09603818  .00000026  00000+0  13231-4 0  9991
2 60265  53.1623  71.7381 0001474  90.3551 269.7619 15.29369469103005
STARLINK-32205          
1 60266U 24131M   26142.21989479  .00000362  00000+0  24360-4 0  9994
2 60266  53.1603  71.0970 0001219  86.4318 273.6822 15.30199204102970
STARLINK-32158          
1 60267U 24131N   26142.18718134 -.00004924  00000+0 -15416-3 0  9990
2 60267  53.1610  70.8828 0001255  72.2899 287.8239 15.30211654102877
STARLINK-32167          
1 60268U 24131P   26142.17241425 -.00000942  00000+0 -19699-4 0  9998
2 60268  53.1607  70.8036 0001333  92.7381 267.3772 15.30191454102965
STARLINK-32144          
1 60269U 24131Q   26142.17872482 -.00000119  00000+0  79253-5 0  9990
2 60269  53.1613  70.8286 0001261  90.5225 269.5921 15.31699502103029
STARLINK-32211          
1 60270U 24131R   26142.09876879 -.00000184  00000+0  59219-5 0  9999
2 60270  53.1602  71.7645 0000914  83.7448 276.3657 15.30190937102953
STARLINK-32164          
1 60271U 24131S   26142.23361693 -.00001491  00000+0 -38252-4 0  9995
2 60271  53.1613  71.1733 0001431  93.0538 267.0626 15.30186247102870
STARLINK-32128          
1 60272U 24131T   26142.18402407 -.00001474  00000+0 -37651-4 0  9992
2 60272  53.1610  70.8626 0001682  96.6985 263.4207 15.30184377102976
STARLINK-32206          
1 60273U 24131U   26142.22304930  .00010983  00000+0  38260-3 0  9999
2 60273  53.1610  71.1134 0001979  97.0582 263.0644 15.30181558102971
STARLINK-32155          
1 60274U 24131V   26142.25002315  .00028251  00000+0  91919-3 0  9992
2 60274  53.1594  70.9049 0001275  85.2067 102.2801 15.31682672  5864
STARLINK-32152          
1 60275U 24131W   26142.18084965 -.00000262  00000+0  32867-5 0  9998
2 60275  53.1607  70.8411 0001104  84.4824 275.6302 15.30192910102875
